NORAD_CAT_ID,OBJECT_NAME,OBJECT_TYPE,EPOCH,MEAN_MOTION,ECCENTRICITY,INCLINATION,RA_OF_ASC_NODE,ARG_OF_PERICENTER,MEAN_ANOMALY,BSTAR,MEAN_MOTION_DOT,MEAN_MOTION_DDOT,TLE_LINE0,TLE_LINE1,TLE_LINE2,SEMIMAJOR_AXIS,PERIOD,APOGEE,PERIGEE,DECAYED
53899.0,STARLINK-5042,PAYLOAD,2023-09-26 18:10:45,15.08834817,0.0001418,53.2183,21.3821,87.5368,272.5786,2.8947e-05,1.73e-06,0.0,0 STARLINK-5042,1 53899U 22119P   23269.75747051  .00000173  00000-0  28947-4 0  9992,2 53899  53.2183  21.3821 0001418  87.5368 272.5786 15.08834817 56582,6917.896,95.438,540.742,538.78,0.0
53899.0,STARLINK-5042,PAYLOAD,2023-09-27 13:15:23,15.08842084,0.000165,53.2176,17.8146,70.7181,289.3989,0.00029932,4.479e-05,0.0,0 STARLINK-5042,1 53899U 22119P   23270.55235316  .00004479  00000-0  29932-3 0  9995,2 53899  53.2176  17.8146 0001650  70.7181 289.3989 15.08842084 56709,6917.874,95.437,540.88,538.598,0.0
53899.0,STARLINK-5042,PAYLOAD,2023-09-27 14:50:46,15.08841267,0.000188,53.2178,17.5177,63.6261,296.4924,0.00037015,5.608e-05,0.0,0 STARLINK-5042,1 53899U 22119P   23270.61859266  .00005608  00000-0  37015-3 0  9994,2 53899  53.2178  17.5177 0001880  63.6261 296.4924 15.08841267 56291,6917.877,95.437,541.042,538.441,0.0
53899.0,STARLINK-5042,PAYLOAD,2023-09-28 11:30:47,15.08840383,0.0002168,53.2177,13.6509,56.1313,303.9885,0.00020874,3.036e-05,0.0,0 STARLINK-5042,1 53899U 22119P   23271.47971698  .00003036  00000-0  20874-3 0  9991,2 53899  53.2177  13.6509 0002168  56.1313 303.9885 15.08840383 56424,6917.879,95.438,541.244,538.244,0.0
53899.0,STARLINK-5042,PAYLOAD,2023-09-28 13:06:10,15.08839643,0.0002048,53.2184,13.3593,56.8867,303.2322,0.00017471,2.493e-05,0.0,0 STARLINK-5042,1 53899U 22119P   23271.54595784  .00002493  00000-0  17471-3 0  9992,2 53899  53.2184  13.3593 0002048  56.8867 303.2322 15.08839643 56853,6917.881,95.438,541.163,538.33,0.0
53899.0,STARLINK-5042,PAYLOAD,2023-09-28 16:16:56,15.08846931,0.0001479,53.2183,12.7583,81.4023,278.7137,0.00027544,4.099e-05,0.0,0 STARLINK-5042,1 53899U 22119P   23271.67843211  .00004099  00000-0  27544-3 0  9993,2 53899  53.2183  12.7583 0001479  81.4023 278.7137 15.08846931 56453,6917.859,95.437,540.747,538.701,0.0
53899.0,STARLINK-5042,PAYLOAD,2023-09-29 06:35:24,15.088382,0.0001784,53.2199,10.0808,130.7252,229.3895,3.5531e-05,2.77e-06,0.0,0 STARLINK-5042,1 53899U 22119P   23272.27459132  .00000277  00000-0  35531-4 0  9995,2 53899  53.2199  10.0808 0001784 130.7252 229.3895 15.08838200 56545,6917.886,95.438,540.985,538.517,0.0
53899.0,STARLINK-5042,PAYLOAD,2023-09-29 12:56:57,15.08846608,0.0001747,53.2185,8.8972,86.8263,273.2929,0.00013678,1.89e-05,0.0,0 STARLINK-5042,1 53899U 22119P   23272.53955175  .00001890  00000-0  13678-3 0  9991,2 53899  53.2185   8.8972 0001747  86.8263 273.2929 15.08846608 57008,6917.86,95.437,540.934,538.517,0.0
53899.0,STARLINK-5042,PAYLOAD,2023-09-30 01:40:02,15.0885183,0.0001593,53.217,6.5169,107.1992,252.9174,0.00030693,4.602e-05,0.0,0 STARLINK-5042,1 53899U 22119P   23273.06946852  .00004602  00000-0  30693-3 0  9992,2 53899  53.2170   6.5169 0001593 107.1992 252.9174 15.08851830 57087,6917.844,95.437,540.811,538.607,0.0
53899.0,STARLINK-5042,PAYLOAD,2023-09-30 11:12:20,15.08854555,0.0001277,53.2182,4.7303,105.4912,254.6221,0.00026023,3.858e-05,0.0,0 STARLINK-5042,1 53899U 22119P   23273.46690474  .00003858  00000-0  26023-3 0  9996,2 53899  53.2182   4.7303 0001277 105.4912 254.6221 15.08854555 56721,6917.836,95.437,540.584,538.817,0.0
53899.0,STARLINK-5042,PAYLOAD,2023-10-01 11:03:07,15.08849785,0.0001351,53.2176,0.2715,105.5743,254.5399,0.00013022,1.786e-05,0.0,0 STARLINK-5042,1 53899U 22119P   23274.46050200  .00001786  00000-0  13022-3 0  9997,2 53899  53.2176   0.2715 0001351 105.5743 254.5399 15.08849785 56878,6917.85,95.437,540.65,538.781,0.0
53899.0,STARLINK-5042,PAYLOAD,2023-10-01 12:38:30,15.08854366,0.0001288,53.2176,359.9747,100.8481,259.2656,0.00021464,3.131e-05,0.0,0 STARLINK-5042,1 53899U 22119P   23274.52674046  .00003131  00000-0  21464-3 0  9999,2 53899  53.2176 359.9747 0001288 100.8481 259.2656 15.08854366 57301,6917.836,95.437,540.592,538.81,0.0
53899.0,STARLINK-5042,PAYLOAD,2023-10-02 10:53:55,15.08829588,0.0001293,53.2183,355.8087,94.3541,265.7599,-0.00010345,-1.933e-05,0.0,0 STARLINK-5042,1 53899U 22119P   23275.45411123 -.00001933  00000-0 -10345-3 0  9993,2 53899  53.2183 355.8087 0001293  94.3541 265.7599 15.08829588 57026,6917.912,95.438,540.672,538.883,0.0
53899.0,STARLINK-5042,PAYLOAD,2023-10-02 14:04:41,15.08830409,0.0001232,53.2174,355.2182,72.6373,287.4753,-1.3132e-05,-4.97e-06,0.0,0 STARLINK-5042,1 53899U 22119P   23275.58659247 -.00000497  00000-0 -13132-4 0  9990,2 53899  53.2174 355.2182 0001232  72.6373 287.4753 15.08830409 57466,6917.91,95.438,540.627,538.922,0.0
53899.0,STARLINK-5042,PAYLOAD,2023-10-03 12:20:05,15.08848839,0.0001226,53.2166,351.0559,73.8807,286.232,0.00073486,0.00011429,0.0,0 STARLINK-5042,1 53899U 22119P   23276.51395535  .00011429  00000-0  73486-3 0  9993,2 53899  53.2166 351.0559 0001226  73.8807 286.2320 15.08848839 57189,6917.853,95.437,540.567,538.87,0.0
53899.0,STARLINK-5042,PAYLOAD,2023-10-04 10:35:29,15.0884636,0.0001381,53.2173,346.8975,99.3496,260.7652,0.00023886,3.516e-05,0.0,0 STARLINK-5042,1 53899U 22119P   23277.44131432  .00003516  00000-0  23886-3 0  9997,2 53899  53.2173 346.8975 0001381  99.3496 260.7652 15.08846360 57328,6917.861,95.437,540.681,538.771,0.0
53899.0,STARLINK-5042,PAYLOAD,2023-10-04 12:10:52,15.08854298,0.0001292,53.2167,346.5994,88.1029,272.0111,0.00042062,6.415e-05,0.0,0 STARLINK-5042,1 53899U 22119P   23277.50755332  .00006415  00000-0  42062-3 0  9993,2 53899  53.2167 346.5994 0001292  88.1029 272.0111 15.08854298 57750,6917.837,95.437,540.595,538.808,0.0
53899.0,STARLINK-5042,PAYLOAD,2023-10-05 10:26:16,15.0884046,0.0001549,53.2172,342.4333,88.9638,271.1531,-2.4835e-06,-3.28e-06,0.0,0 STARLINK-5042,1 53899U 22119P   23278.43491582 -.00000328  00000-0 -24835-5 0  9999,2 53899  53.2172 342.4333 0001549  88.9638 271.1531 15.08840460 57478,6917.879,95.438,540.816,538.672,0.0
53899.0,STARLINK-5042,PAYLOAD,2023-10-05 13:37:02,15.08852096,0.000146,53.2168,341.8366,90.3179,269.798,0.00026046,3.861e-05,0.0,0 STARLINK-5042,1 53899U 22119P   23278.56739228  .00003861  00000-0  26046-3 0  9992,2 53899  53.2168 341.8366 0001460  90.3179 269.7980 15.08852096 57919,6917.843,95.437,540.718,538.698,0.0
53899.0,STARLINK-5042,PAYLOAD,2023-10-06 10:17:03,15.08843895,0.000162,53.2168,337.9711,95.3986,264.7191,0.00023233,3.412e-05,0.0,0 STARLINK-5042,1 53899U 22119P   23279.42851751  .00003412  00000-0  23233-3 0  9991,2 53899  53.2168 337.9711 0001620  95.3986 264.7191 15.08843895 57622,6917.868,95.437,540.854,538.613,0.0
53899.0,STARLINK-5042,PAYLOAD,2023-10-06 21:24:45,15.08844427,0.0001638,53.2166,335.8897,92.6151,267.5028,0.00028417,4.238e-05,0.0,0 STARLINK-5042,1 53899U 22119P   23279.89219835  .00004238  00000-0  28417-3 0  9999,2 53899  53.2166 335.8897 0001638  92.6151 267.5028 15.08844427 58112,6917.867,95.437,540.865,538.599,0.0
53899.0,STARLINK-5042,PAYLOAD,2023-10-07 10:07:51,15.08845105,0.0001842,53.217,333.5097,100.1426,259.9774,0.00023423,3.442e-05,0.0,0 STARLINK-5042,1 53899U 22119P   23280.42211818  .00003442  00000-0  23423-3 0  9991,2 53899  53.2170 333.5097 0001842 100.1426 259.9774 15.08845105 57779,6917.865,95.437,541.004,538.456,0.0
53899.0,STARLINK-5042,PAYLOAD,2023-10-08 03:37:05,15.08841124,0.0001761,53.2164,330.2383,99.3835,260.7357,8.0282e-05,9.9e-06,0.0,0 STARLINK-5042,1 53899U 22119P   23281.15076037  .00000990  00000-0  80282-4 0  9996,2 53899  53.2164 330.2383 0001761  99.3835 260.7357 15.08841124 57883,6917.877,95.437,540.96,538.524,0.0
53899.0,STARLINK-5042,PAYLOAD,2023-10-08 09:58:38,15.08845636,0.0001711,53.2171,329.0503,87.9343,272.1845,0.00016769,2.382e-05,0.0,0 STARLINK-5042,1 53899U 22119P   23281.41571922  .00002382  00000-0  16769-3 0  9993,2 53899  53.2171 329.0503 0001711  87.9343 272.1845 15.08845636 58346,6917.863,95.437,540.912,538.545,0.0
53899.0,STARLINK-5042,PAYLOAD,2023-10-09 03:27:53,15.0883648,0.0001612,53.2162,325.7792,87.4411,272.6766,9.0788e-05,1.157e-05,0.0,0 STARLINK-5042,1 53899U 22119P   23282.14436408  .00001157  00000-0  90788-4 0  9996,2 53899  53.2162 325.7792 0001612  87.4411 272.6766 15.08836480 58030,6917.891,95.438,540.871,538.641,0.0
53899.0,STARLINK-5042,PAYLOAD,2023-10-09 09:49:25,15.08845755,0.0001689,53.2164,324.5877,89.3291,270.7894,0.00017724,2.534e-05,0.0,0 STARLINK-5042,1 53899U 22119P   23282.40931888  .00002534  00000-0  17724-3 0  9995,2 53899  53.2164 324.5877 0001689  89.3291 270.7894 15.08845755 58490,6917.863,95.437,540.896,538.559,0.0
53899.0,STARLINK-5042,PAYLOAD,2023-10-10 03:18:40,15.08838529,0.0001677,53.2181,321.324,86.3899,273.7285,9.75e-05,1.264e-05,0.0,0 STARLINK-5042,1 53899U 22119P   23283.13796373  .00001264  00000-0  97500-4 0  9994,2 53899  53.2181 321.3240 0001677  86.3899 273.7285 15.08838529 58180,6917.885,95.438,540.91,538.59,0.0
53899.0,STARLINK-5042,PAYLOAD,2023-10-10 09:40:12,15.0884818,0.0001647,53.2165,320.1305,91.7761,268.342,0.00017564,2.509e-05,0.0,0 STARLINK-5042,1 53899U 22119P   23283.40291840  .00002509  00000-0  17564-3 0  9997,2 53899  53.2165 320.1305 0001647  91.7761 268.3420 15.08848180 58226,6917.855,95.437,540.86,538.581,0.0
53899.0,STARLINK-5042,PAYLOAD,2023-10-10 19:12:31,15.0884294,0.0001649,53.2164,318.3457,88.0195,272.0986,8.0091e-05,9.87e-06,0.0,0 STARLINK-5042,1 53899U 22119P   23283.80035906  .00000987  00000-0  80091-4 0  9994,2 53899  53.2164 318.3457 0001649  88.0195 272.0986 15.08842940 58704,6917.871,95.437,540.877,538.596,0.0
53899.0,STARLINK-5042,PAYLOAD,2023-10-11 03:09:27,15.08826289,0.0001742,53.2176,316.863,91.226,268.8932,-0.00011097,-2.053e-05,0.0,0 STARLINK-5042,1 53899U 22119P   23284.13157016 -.00002053  00000-0 -11097-3 0  9995,2 53899  53.2176 316.8630 0001742  91.2260 268.8932 15.08826289 58337,6917.922,95.438,540.992,538.582,0.0
